From: horizons@ssd.jpl.nasa.gov (Horizons Ephemeris System)
Subject: [Horizons] SMALL BODY #C(500@399)_T(289P/Blanpain) (1/1)
Date: January 29, 2021 at 10:59:54 AM PST

Automated mail xmit by PORT_LOGIN, PID= 21169 Fri Jan 29 10:59:54 2021
++++++++++++++++++++++++++++++++ (part 1 of 1)  +++++++++++++++++++++++++++++++
*******************************************************************************
Ephemeris / PORT_LOGIN Fri Jan 29 10:59:35 2021 Pasadena, USA    / Horizons
*******************************************************************************
Target body name: 289P/Blanpain                   {source: JPL#K192/7}
Center body name: Earth (399)                     {source: DE431}
Center-site name: BODY CENTER
*******************************************************************************
Start time      : A.D. 2035-May-06 16:16:33.0000 TDB
Stop  time      : A.D. 2036-May-06 16:16:33.0000 TDB
Step-size       : 10080 minutes
*******************************************************************************
Center geodetic : 0.00000000,0.00000000,0.0000000 {E-lon(deg),Lat(deg),Alt(km)}
Center cylindric: 0.00000000,0.00000000,0.0000000 {E-lon(deg),Dxy(km),Dz(km)}
Center radii    : 6378.1 x 6378.1 x 6356.8 km     {Equator, meridian, pole}    
Small perturbers: Yes                             {source: SB431-N16}
Output units    : AU-D
Output type     : GEOMETRIC cartesian states
Output format   : 6 (LT, range, and range-rate)
EOP file        : eop.210128.p210421
EOP coverage    : DATA-BASED 1962-JAN-20 TO 2021-JAN-28. PREDICTS-> 2021-APR-20
Reference frame : Ecliptic of J2000.0
*******************************************************************************
Initial IAU76/J2000 heliocentric ecliptic osculating elements (au, days, deg.):
 EPOCH=  2458679.5 ! 2019-Jul-15.0000000 (TDB)    RMSW= n.a.                  
  EC= .6851211084947294   QR= .9589096682577553   TP= 2458838.493166626       
  OM= 68.92462865910687   W= 9.847265516657052    IN= 5.897394919082268       
 Equivalent ICRF heliocentric equatorial cartesian coordinates (au, au/d):
  X= 1.806457266246343E+00  Y=-9.923836828350668E-01  Z=-6.676379654077969E-01
 VX=-1.691548184328044E-03 VY= 1.179852737585390E-02 VZ= 5.825041808322046E-03
Comet physical (GM= km^3/s^2; RAD= km):                                        
  GM= n.a.                RAD= n.a.                                           
  M1=  22.      M2=  n.a.     k1=  4.5    k2= n.a.     PHCOF= n.a.            
*******************************************************************************
           JDTDB,            Calendar Date (TDB),                     LT,                     RG,                     RR,
**************************************************************************************************************************
$$SOE
2464454.178159722, A.D. 2035-May-06 16:16:33.0000,  1.598166656160466E-02,  2.767139786331228E+00, -1.983786447958166E-02,
2464461.178159722, A.D. 2035-May-13 16:16:33.0000,  1.517455582935824E-02,  2.627392895068986E+00, -2.007123981828933E-02,
2464468.178159722, A.D. 2035-May-20 16:16:33.0000,  1.436009687757946E-02,  2.486373699035002E+00, -2.020564700018749E-02,
2464475.178159722, A.D. 2035-May-27 16:16:33.0000,  1.354185362897404E-02,  2.344699272317039E+00, -2.025982871566761E-02,
2464482.178159722, A.D. 2035-Jun-03 16:16:33.0000,  1.272303522583915E-02,  2.202925260679339E+00, -2.023225022262583E-02,
2464489.178159722, A.D. 2035-Jun-10 16:16:33.0000,  1.190730125885684E-02,  2.061685302606287E+00, -2.010407155483018E-02,
2464496.178159722, A.D. 2035-Jun-17 16:16:33.0000,  1.109874630009974E-02,  1.921688351275354E+00, -1.988168464523186E-02,
2464503.178159722, A.D. 2035-Jun-24 16:16:33.0000,  1.030071255238138E-02,  1.783513091165011E+00, -1.958519069073228E-02,
2464510.178159722, A.D. 2035-Jul-01 16:16:33.0000,  9.516129611465873E-03,  1.647666766057720E+00, -1.921464906543604E-02,
2464517.178159722, A.D. 2035-Jul-08 16:16:33.0000,  8.748316089028355E-03,  1.514723975752961E+00, -1.875262706455317E-02,
2464524.178159722, A.D. 2035-Jul-15 16:16:33.0000,  8.000980166632990E-03,  1.385326771985551E+00, -1.820648239392745E-02,
2464531.178159722, A.D. 2035-Jul-22 16:16:33.0000,  7.277017135272598E-03,  1.259976458850927E+00, -1.759835399070576E-02,
2464538.178159722, A.D. 2035-Jul-29 16:16:33.0000,  6.578817350644409E-03,  1.139086913608246E+00, -1.693068076597957E-02,
2464545.178159722, A.D. 2035-Aug-05 16:16:33.0000,  5.909062782903396E-03,  1.023122504994833E+00, -1.618882930070783E-02,
2464552.178159722, A.D. 2035-Aug-12 16:16:33.0000,  5.270694960403740E-03,  9.125925428570754E-01, -1.538338547631639E-02,
2464559.178159722, A.D. 2035-Aug-19 16:16:33.0000,  4.665694750221148E-03,  8.078400036971721E-01, -1.454101806414426E-02,
2464566.178159722, A.D. 2035-Aug-26 16:16:33.0000,  4.095326060053570E-03,  7.090837263492198E-01, -1.366973039948537E-02,
2464573.178159722, A.D. 2035-Sep-02 16:16:33.0000,  3.560912900509947E-03,  6.165529561437585E-01, -1.276143355929385E-02,
2464580.178159722, A.D. 2035-Sep-09 16:16:33.0000,  3.063726964559997E-03,  5.304678798929060E-01, -1.183461050566713E-02,
2464587.178159722, A.D. 2035-Sep-16 16:16:33.0000,  2.603783570729729E-03,  4.508311499172209E-01, -1.092316497215116E-02,
2464594.178159722, A.D. 2035-Sep-23 16:16:33.0000,  2.180103374507407E-03,  3.774731979709569E-01, -1.004066896731145E-02,
2464601.178159722, A.D. 2035-Sep-30 16:16:33.0000,  1.791667303667576E-03,  3.102175771679691E-01, -9.177979881467600E-03,
2464608.178159722, A.D. 2035-Oct-07 16:16:33.0000,  1.437718668348836E-03,  2.489332707201573E-01, -8.334919393481396E-03,
2464615.178159722, A.D. 2035-Oct-14 16:16:33.0000,  1.117855344482089E-03,  1.935506530032877E-01, -7.478299703464405E-03,
2464622.178159722, A.D. 2035-Oct-21 16:16:33.0000,  8.354239713353217E-04,  1.446491766441094E-01, -6.433628941915376E-03,
2464629.178159722, A.D. 2035-Oct-28 16:16:33.0000,  6.070881184172440E-04,  1.051140492642495E-01, -4.665207203272005E-03,
2464636.178159722, A.D. 2035-Nov-04 16:16:33.0000,  4.817416927031420E-04,  8.341098842695230E-02, -1.207685422783306E-03,
2464643.178159722, A.D. 2035-Nov-11 16:16:33.0000,  5.192804276312520E-04,  8.991061889713557E-02,  2.864664440486418E-03,
2464650.178159722, A.D. 2035-Nov-18 16:16:33.0000,  6.848736518963736E-04,  1.185821968858631E-01,  4.994254852716747E-03,
2464657.178159722, A.D. 2035-Nov-25 16:16:33.0000,  9.044248357441783E-04,  1.565963059663859E-01,  5.721038043273349E-03,
2464664.178159722, A.D. 2035-Dec-02 16:16:33.0000,  1.139624278958714E-03,  1.973198271669525E-01,  5.848841292046610E-03,
2464671.178159722, A.D. 2035-Dec-09 16:16:33.0000,  1.373362120021943E-03,  2.377902797999153E-01,  5.675652106761632E-03,
2464678.178159722, A.D. 2035-Dec-16 16:16:33.0000,  1.595921255759398E-03,  2.763251996054732E-01,  5.306166749742000E-03,
2464685.178159722, A.D. 2035-Dec-23 16:16:33.0000,  1.800562464158097E-03,  3.117577264636788E-01,  4.802193376058947E-03,
2464692.178159722, A.D. 2035-Dec-30 16:16:33.0000,  1.983618195446657E-03,  3.434528438165508E-01,  4.253281463653033E-03,
2464699.178159722, A.D. 2036-Jan-06 16:16:33.0000,  2.144945034971943E-03,  3.713857201866527E-01,  3.738951085488205E-03,
2464706.178159722, A.D. 2036-Jan-13 16:16:33.0000,  2.287222034880406E-03,  3.960202190737964E-01,  3.319004518487131E-03,
2464713.178159722, A.D. 2036-Jan-20 16:16:33.0000,  2.415321115500030E-03,  4.181998873335891E-01,  3.050650046569164E-03,
2464720.178159722, A.D. 2036-Jan-27 16:16:33.0000,  2.537129899034716E-03,  4.392904244151984E-01,  3.021202238696771E-03,
2464727.178159722, A.D. 2036-Feb-03 16:16:33.0000,  2.663628367871950E-03,  4.611929553358751E-01,  3.288541207393203E-03,
2464734.178159722, A.D. 2036-Feb-10 16:16:33.0000,  2.807188699317498E-03,  4.860496561906067E-01,  3.862882316069624E-03,
2464741.178159722, A.D. 2036-Feb-17 16:16:33.0000,  2.979873835977482E-03,  5.159491607459006E-01,  4.728144503876540E-03,
2464748.178159722, A.D. 2036-Feb-24 16:16:33.0000,  3.193221848135839E-03,  5.528892239428388E-01,  5.867543269085731E-03,
2464755.178159722, A.D. 2036-Mar-02 16:16:33.0000,  3.457068039243001E-03,  5.985727757845858E-01,  7.210554242555548E-03,
2464762.178159722, A.D. 2036-Mar-09 16:16:33.0000,  3.777565547025348E-03,  6.540651990425697E-01,  8.652146956980808E-03,
2464769.178159722, A.D. 2036-Mar-16 16:16:33.0000,  4.156880293209840E-03,  7.197415114386062E-01,  1.011256936413663E-02,
2464776.178159722, A.D. 2036-Mar-23 16:16:33.0000,  4.594989146021713E-03,  7.955977078300510E-01,  1.155347124798708E-02,
2464783.178159722, A.D. 2036-Mar-30 16:16:33.0000,  5.090143585278799E-03,  8.813310413322386E-01,  1.292617580302565E-02,
2464790.178159722, A.D. 2036-Apr-06 16:16:33.0000,  5.638608431697207E-03,  9.762947857000874E-01,  1.418502887216332E-02,
2464797.178159722, A.D. 2036-Apr-13 16:16:33.0000,  6.235479659342393E-03,  1.079639835164536E+00,  1.532419451101474E-02,
2464804.178159722, A.D. 2036-Apr-20 16:16:33.0000,  6.876289586178688E-03,  1.190592634560613E+00,  1.635892577426419E-02,
2464811.178159722, A.D. 2036-Apr-27 16:16:33.0000,  7.556691926702849E-03,  1.308400647881362E+00,  1.727999886812641E-02,
2464818.178159722, A.D. 2036-May-04 16:16:33.0000,  8.271718022347552E-03,  1.432203578564261E+00,  1.807018041862220E-02,
$$EOE
**************************************************************************************************************************
Coordinate system description:

 Ecliptic at the standard reference epoch

   Reference epoch: J2000.0
   X-Y plane: adopted Earth orbital plane at the reference epoch
              Note: obliquity of 84381.448 arcseconds (IAU76) wrt ICRF equator
   X-axis   : ICRF
   Z-axis   : perpendicular to the X-Y plane in the directional (+ or -) sense
              of Earth's north pole at the reference epoch.

 Symbol meaning [1 au= 149597870.700 km, 1 day= 86400.0 s]:

   JDTDB    Julian Day Number, Barycentric Dynamical Time
     LT     One-way down-leg Newtonian light-time (day)
     RG     Range; distance from coordinate center (au)
     RR     Range-rate; radial velocity wrt coord. center (au/day)

Geometric states/elements have no aberrations applied.


Computations by ...
    Solar System Dynamics Group, Horizons On-Line Ephemeris System
    4800 Oak Grove Drive, Jet Propulsion Laboratory
    Pasadena, CA  91109   USA
    Information  : https://ssd.jpl.nasa.gov/
    Documentation: https://ssd.jpl.nasa.gov/?horizons_doc
    Connect      : https://ssd.jpl.nasa.gov/?horizons (browser)
                   telnet ssd.jpl.nasa.gov 6775       (command-line)
                   e-mail command interface available
                   Script and CGI interfaces available
    Author       : Jon.D.Giorgini@jpl.nasa.gov
*******************************************************************************
